{
    "links": {
        "self": "http://www.neowsapp.com/rest/v1/neo/3675298?api_key=iIulBulltgU6a56xZRHN4H3l9WmuAYTsLGpBGhQ2"
    },
    "id": "3675298",
    "neo_reference_id": "3675298",
    "name": "(2014 NX64)",
    "designation": "2014 NX64",
    "nasa_jpl_url": "http://ssd.jpl.nasa.gov/sbdb.cgi?sstr=3675298",
    "absolute_magnitude_h": 23.541,
    "estimated_diameter": {
        "kilometers": {
            "estimated_diameter_min": 0.0520421196,
            "estimated_diameter_max": 0.1163697172
        },
        "meters": {
            "estimated_diameter_min": 52.0421196207,
            "estimated_diameter_max": 116.3697171651
        },
        "miles": {
            "estimated_diameter_min": 0.0323374639,
            "estimated_diameter_max": 0.0723087675
        },
        "feet": {
            "estimated_diameter_min": 170.7418677365,
            "estimated_diameter_max": 381.7904228641
        }
    },
    "is_potentially_hazardous_asteroid": false,
    "close_approach_data": [
        {
            "close_approach_date": "2014-05-18",
            "close_approach_date_full": "2014-May-18 06:47",
            "epoch_date_close_approach": 1400395620000,
            "relative_velocity": {
                "kilometers_per_second": "7.4044179314",
                "kilometers_per_hour": "26655.9045531872",
                "miles_per_hour": "16562.9424708401"
            },
            "miss_distance": {
                "astronomical": "0.1160675706",
                "lunar": "45.1502849634",
                "kilometers": "17363461.337834622",
                "miles": "10789154.5755849036"
            },
            "orbiting_body": "Earth"
        }
    ],
    "orbital_data": {
        "orbit_id": "3",
        "orbit_determination_date": "2017-04-06 08:39:36",
        "first_observation_date": "2014-07-01",
        "last_observation_date": "2014-07-02",
        "data_arc_in_days": 1,
        "observations_used": 9,
        "orbit_uncertainty": "9",
        "minimum_orbit_intersection": ".0682237",
        "jupiter_tisserand_invariant": "3.625",
        "epoch_osculation": "2456840.5",
        "eccentricity": ".4929128264572343",
        "semi_major_axis": "2.044754926686014",
        "inclination": "7.981435357868861",
        "ascending_node_longitude": "281.4706936726982",
        "orbital_period": "1067.973119433506",
        "perihelion_distance": "1.036868996360856",
        "perihelion_argument": "317.8632051866992",
        "aphelion_distance": "3.052640857011172",
        "perihelion_time": "2456794.878197913606",
        "mean_anomaly": "15.37852259784749",
        "mean_motion": ".3370871358550278",
        "equinox": "J2000",
        "orbit_class": {
            "orbit_class_type": "AMO",
            "orbit_class_description": "Near-Earth asteroid orbits similar to that of 1221 Amor",
            "orbit_class_range": "1.017 AU < q (perihelion) < 1.3 AU"
        }
    },
    "is_sentry_object": false
}